OBJECT_NAME,OBJECT_ID,EPOCH,MEAN_MOTION,ECCENTRICITY,INCLINATION,RA_OF_ASC_NODE,ARG_OF_PERICENTER,MEAN_ANOMALY,EPHEMERIS_TYPE,CLASSIFICATION_TYPE,NORAD_CAT_ID,ELEMENT_SET_NO,REV_AT_EPOCH,BSTAR,MEAN_MOTION_DOT,MEAN_MOTION_DDOT
KORONAS-FOTON,2009-003A,2026-07-20T20:43:29.576064,15.46390634,.0011668,82.4306,137.1137,44.5676,315.6509,0,U,33504,999,96630,.19365E-3,.9635E-4,0
CZ-2C R/B,2011-030B,2026-07-20T21:04:01.881120,14.81538957,.0050676,97.8672,156.6617,277.1384,140.4149,0,U,37731,999,80981,.78936E-4,.577E-5,0
H-2A R/B,2012-025E,2026-07-20T20:55:27.878880,14.95848432,.0042719,98.4849,179.8023,235.7784,123.9383,0,U,38341,999,76812,.11694E-3,.1259E-4,0
SHIJIAN-16 (SJ-16),2013-057A,2026-07-20T14:50:10.740768,14.92680019,.0015581,74.9736,293.3635,151.7251,208.4787,0,U,39358,999,69133,.96568E-4,.969E-5,0
SL-4 R/B,2014-021B,2026-07-20T19:44:29.145120,15.42555470,.0089407,51.6068,45.9129,229.2481,130.0719,0,U,39679,999,67680,.14779E-3,.7076E-4,0
ALOS-2,2014-029A,2026-07-20T18:03:53.292960,14.79473928,.0001588,97.9225,298.4370,91.3293,268.8100,0,U,39766,999,65654,.8271E-4,.566E-5,0
YAOGAN-29,2015-069A,2026-07-20T20:15:29.165184,14.83109516,.0000161,98.0020,230.5283,27.8100,332.3122,0,U,41038,999,57561,.61684E-4,.449E-5,0
ASTRO-H (HITOMI),2016-012A,2026-07-20T06:30:22.018752,15.10644305,.00096717,30.9974,220.4992,226.2972,133.6865,0,U,41337,999,57229,.70049003E-4,.1284E-4,0
HXMT (HUIYAN),2017-034A,2026-07-20T17:52:10.935264,15.18716792,.0031551,43.0152,356.1492,355.7121,4.3454,0,U,42758,999,50276,.13479E-3,.2637E-4,0
SAOCOM 1A,2018-076A,2026-07-20T19:46:19.026912,14.82151046,.0001488,97.8894,28.0838,86.8385,273.2998,0,U,43641,999,42108,.70637E-4,.51E-5,0
H-2A R/B,2018-084L,2026-07-20T14:16:40.700928,15.46329982,.002027,98.8522,87.8125,280.1764,79.7195,0,U,43682,999,42628,.2472E-3,.12172E-3,0
SAOCOM 1B,2020-059A,2026-07-20T20:31:14.928096,14.82143307,.0001485,97.8899,27.2111,84.7493,275.3889,0,U,46265,999,31847,-.36099E-4,-.339E-5,0
CSS (TIANHE),2021-035A,2026-07-20T18:59:18.073824,15.58223796,.0001779,41.4681,117.9120,306.1178,53.9495,0,U,48274,999,29841,.13847E-3,.1045E-3,0
COSMOS 2550,2021-056A,2026-07-20T20:48:33.531264,15.33862895,.0008542,67.1441,358.0252,269.4677,90.5499,0,U,48865,999,28388,.10589E-3,.3297E-4,0
CZ-2C R/B,2022-058K,2026-07-20T10:07:02.425440,15.64135343,.00300707,50.1861,350.2809,44.5445,315.7940,0,U,52794,999,23084,.28001206E-3,.27309E-3,0
CZ-2C R/B,2022-132E,2026-07-20T06:49:11.621856,15.75445426,.00086225,97.2897,209.8860,317.4870,42.5727,0,U,54039,999,21115,.2875643E-3,.43555E-3,0
GSLV R/B,2022-138AN,2026-07-20T19:12:31.155840,14.97398927,.0022861,87.3815,121.6972,33.5052,326.7621,0,U,54149,999,20384,.13127E-3,.1562E-4,0
XRISM,2023-137A,2026-07-20T04:26:44.964096,15.12690874,.00078481,31.0011,145.8091,295.7303,64.2525,0,U,57800,999,15786,.11998334E-3,.2251E-4,0
ACS3,2024-077B,2026-07-19T16:48:18.365184,13.95428126,.01293761,97.1775,112.2879,31.3060,329.5729,0,U,59588,999,11257,.25000287E-2,.3608E-4,0
SPACEMOBILE-003,2024-163A,2026-07-20T03:25:08.519808,15.20721715,.0004241,52.9674,157.8928,210.2897,149.7852,0,U,61045,999,10278,.89590351E-4,.167E-4,0
SPACEMOBILE-005,2024-163B,2026-07-20T06:10:32.903328,15.20720640,.00086691,52.9743,157.3189,211.7347,148.3126,0,U,61046,999,10279,.70890635E-4,.1252E-4,0
SPACEMOBILE-001,2024-163C,2026-07-20T06:08:11.084640,15.20700764,.00069537,52.9710,157.0335,209.4162,150.6442,0,U,61047,999,10279,.8659876E-5,-.135E-5,0
SPACEMOBILE-002,2024-163D,2026-07-19T04:30:48.555072,15.20578455,.00047519,52.9793,161.9891,205.9492,154.1265,0,U,61048,999,10263,.48876039E-3,.10534E-3,0
SPACEMOBILE-004,2024-163E,2026-07-20T06:54:23.133600,15.20670628,.00054059,52.9728,156.7022,240.1803,119.8654,0,U,61049,999,10280,.54286911E-3,.11771E-3,0
CZ-8A R/B,2025-231K,2026-07-20T09:10:27.929280,14.30163075,.0116538,50.0032,258.0904,340.8790,18.7770,0,U,66004,999,3969,.23312E-4,-.1E-5,0
SZ-21 MODULE,2025-246C,2026-07-19T22:32:34.099584,15.79140397,.0009191,41.4720,102.9079,250.3291,109.6563,0,U,66515,999,3891,.18664827E-3,.34255E-3,0
